KSLV-II R/B             
1 66663U 25274P   25347.76076355  .00007387  00000+0  62363-3 0  9994
2 66663  97.7412 275.0935 0053133 316.0330  43.6671 14.97315087  2566
SOYUZ-MS 28             
1 66664U 25275A   25347.89541822  .00011998  00000+0  22109-3 0  9993
2 66664  51.6304 136.7564 0003256 246.2023 113.8624 15.49578000  1281
STARLINK-35867          
1 66791U 25278A   25347.42751506  .00742252  00000+0  23806-2 0  9996
2 66791  42.9973 247.8863 0012697 344.0159  16.0313 15.88325617  1948
STARLINK-35990          
1 66792U 25278B   25347.04958061  .02531554  00000+0  72177-2 0  9998
2 66792  42.9971 250.2153 0004280 252.2760 107.7648 15.89439223  1886
STARLINK-36051          
1 66793U 25278C   25347.86776506 -.01144133  00000+0 -53576-2 0  9997
2 66793  42.9966 245.1627 0004045 286.0579  73.9848 15.84603370  2015
STARLINK-36062          
1 66794U 25278D   25347.86824392 -.00976185  00000+0 -45764-2 0  9994
2 66794  42.9968 245.1683 0002778 243.3062 116.7526 15.84606272  2017
STARLINK-36047          
1 66795U 25278E   25347.42659041  .00176561  00000+0  69096-3 0  9997
2 66795  42.9972 247.8787 0002730 337.2079  22.8673 15.85716251  1947
STARLINK-35964          
1 66796U 25278F   25347.86650870 -.00597138  12488-3 -13258-2 0  9991
2 66796  42.9941 244.2388 0002745 230.1119 129.9517 15.96921183  2024
STARLINK-36099          
1 66797U 25278G   25347.11065824  .00224629  00000+0  83695-3 0  9995
2 66797  42.9983 249.8093 0003829 302.0122  58.0379 15.86593561  1898
STARLINK-36041          
1 66798U 25278H   25347.86562958 -.01278615  00000+0 -61246-2 0  9992
2 66798  42.9970 245.1466 0002800 264.2776  95.7777 15.84436801  2016
STARLINK-36044          
1 66799U 25278J   25347.80181046  .00899454  32948-3  30804-2 0  9995
2 66799  42.9974 245.5274 0029254 280.3438  79.4139 15.88156331  2009
STARLINK-35996          
1 66800U 25278K   25347.73913378 -.00439560  00000+0 -19313-2 0  9993
2 66800  42.9967 245.9175 0002114 262.5698  97.4935 15.84673795  1999
