CCSDS_OMM_VERS = 2.0
CREATION_DATE  = 
ORIGINATOR     = 

OBJECT_NAME    = KSLV-II R/B
OBJECT_ID      = 2025-274P
CENTER_NAME    = EARTH
REF_FRAME      = TEME
TIME_SYSTEM    = UTC
MEAN_ELEMENT_THEORY = SGP/SGP4

EPOCH          = 2025-12-13T18:15:29.970720
MEAN_MOTION    = 14.97315087
ECCENTRICITY   = .00531336
INCLINATION    = 97.7412
RA_OF_ASC_NODE = 275.0935
ARG_OF_PERICENTER = 316.0330
MEAN_ANOMALY   = 43.6671

EPHEMERIS_TYPE = 0
CLASSIFICATION_TYPE = U
NORAD_CAT_ID   = 66663
ELEMENT_SET_NO = 999
REV_AT_EPOCH   = 256
BSTAR          = .62362937E-3
MEAN_MOTION_DOT = .7387E-4
MEAN_MOTION_DDOT = 0

CCSDS_OMM_VERS = 2.0
CREATION_DATE  = 
ORIGINATOR     = 

OBJECT_NAME    = SOYUZ-MS 28
OBJECT_ID      = 2025-275A
CENTER_NAME    = EARTH
REF_FRAME      = TEME
TIME_SYSTEM    = UTC
MEAN_ELEMENT_THEORY = SGP/SGP4

EPOCH          = 2025-12-13T21:29:24.134208
MEAN_MOTION    = 15.49578000
ECCENTRICITY   = .00032568
INCLINATION    = 51.6304
RA_OF_ASC_NODE = 136.7564
ARG_OF_PERICENTER = 246.2023
MEAN_ANOMALY   = 113.8624

EPHEMERIS_TYPE = 0
CLASSIFICATION_TYPE = U
NORAD_CAT_ID   = 66664
ELEMENT_SET_NO = 999
REV_AT_EPOCH   = 128
BSTAR          = .22109287E-3
MEAN_MOTION_DOT = .11998E-3
MEAN_MOTION_DDOT = 0

CCSDS_OMM_VERS = 2.0
CREATION_DATE  = 
ORIGINATOR     = 

OBJECT_NAME    = STARLINK-35867
OBJECT_ID      = 2025-278A
CENTER_NAME    = EARTH
REF_FRAME      = TEME
TIME_SYSTEM    = UTC
MEAN_ELEMENT_THEORY = SGP/SGP4

EPOCH          = 2025-12-13T10:15:37.301184
MEAN_MOTION    = 15.88325617
ECCENTRICITY   = .0012697
INCLINATION    = 42.9973
RA_OF_ASC_NODE = 247.8863
ARG_OF_PERICENTER = 344.0159
MEAN_ANOMALY   = 16.0313

EPHEMERIS_TYPE = 0
CLASSIFICATION_TYPE = U
NORAD_CAT_ID   = 66791
ELEMENT_SET_NO = 999
REV_AT_EPOCH   = 194
BSTAR          = .23805818E-2
MEAN_MOTION_DOT = .742252E-2
MEAN_MOTION_DDOT = 0

CCSDS_OMM_VERS = 2.0
CREATION_DATE  = 
ORIGINATOR     = 

OBJECT_NAME    = STARLINK-35990
OBJECT_ID      = 2025-278B
CENTER_NAME    = EARTH
REF_FRAME      = TEME
TIME_SYSTEM    = UTC
MEAN_ELEMENT_THEORY = SGP/SGP4

EPOCH          = 2025-12-13T01:11:23.764704
MEAN_MOTION    = 15.89439223
ECCENTRICITY   = .00042805
INCLINATION    = 42.9971
RA_OF_ASC_NODE = 250.2153
ARG_OF_PERICENTER = 252.2760
MEAN_ANOMALY   = 107.7648

EPHEMERIS_TYPE = 0
CLASSIFICATION_TYPE = U
NORAD_CAT_ID   = 66792
ELEMENT_SET_NO = 999
REV_AT_EPOCH   = 188
BSTAR          = .72177431E-2
MEAN_MOTION_DOT = .2531554E-1
MEAN_MOTION_DDOT = 0

CCSDS_OMM_VERS = 2.0
CREATION_DATE  = 
ORIGINATOR     = 

OBJECT_NAME    = STARLINK-36051
OBJECT_ID      = 2025-278C
CENTER_NAME    = EARTH
REF_FRAME      = TEME
TIME_SYSTEM    = UTC
MEAN_ELEMENT_THEORY = SGP/SGP4

EPOCH          = 2025-12-13T20:49:34.901184
MEAN_MOTION    = 15.84603370
ECCENTRICITY   = .00040454
INCLINATION    = 42.9966
RA_OF_ASC_NODE = 245.1627
ARG_OF_PERICENTER = 286.0579
MEAN_ANOMALY   = 73.9848

EPHEMERIS_TYPE = 0
CLASSIFICATION_TYPE = U
NORAD_CAT_ID   = 66793
ELEMENT_SET_NO = 999
REV_AT_EPOCH   = 201
BSTAR          = -.53576145E-2
MEAN_MOTION_DOT = -.1144133E-1
MEAN_MOTION_DDOT = 0

CCSDS_OMM_VERS = 2.0
CREATION_DATE  = 
ORIGINATOR     = 

OBJECT_NAME    = STARLINK-36062
OBJECT_ID      = 2025-278D
CENTER_NAME    = EARTH
REF_FRAME      = TEME
TIME_SYSTEM    = UTC
MEAN_ELEMENT_THEORY = SGP/SGP4

EPOCH          = 2025-12-13T20:50:16.274688
MEAN_MOTION    = 15.84606272
ECCENTRICITY   = .00027781
INCLINATION    = 42.9968
RA_OF_ASC_NODE = 245.1683
ARG_OF_PERICENTER = 243.3062
MEAN_ANOMALY   = 116.7526

EPHEMERIS_TYPE = 0
CLASSIFICATION_TYPE = U
NORAD_CAT_ID   = 66794
ELEMENT_SET_NO = 999
REV_AT_EPOCH   = 201
BSTAR          = -.45763654E-2
MEAN_MOTION_DOT = -.976185E-2
MEAN_MOTION_DDOT = 0

CCSDS_OMM_VERS = 2.0
CREATION_DATE  = 
ORIGINATOR     = 

OBJECT_NAME    = STARLINK-36047
OBJECT_ID      = 2025-278E
CENTER_NAME    = EARTH
REF_FRAME      = TEME
TIME_SYSTEM    = UTC
MEAN_ELEMENT_THEORY = SGP/SGP4

EPOCH          = 2025-12-13T10:14:17.411424
MEAN_MOTION    = 15.85716251
ECCENTRICITY   = .00027302
INCLINATION    = 42.9972
RA_OF_ASC_NODE = 247.8787
ARG_OF_PERICENTER = 337.2079
MEAN_ANOMALY   = 22.8673

EPHEMERIS_TYPE = 0
CLASSIFICATION_TYPE = U
NORAD_CAT_ID   = 66795
ELEMENT_SET_NO = 999
REV_AT_EPOCH   = 194
BSTAR          = .69096369E-3
MEAN_MOTION_DOT = .176561E-2
MEAN_MOTION_DDOT = 0

CCSDS_OMM_VERS = 2.0
CREATION_DATE  = 
ORIGINATOR     = 

OBJECT_NAME    = STARLINK-35964
OBJECT_ID      = 2025-278F
CENTER_NAME    = EARTH
REF_FRAME      = TEME
TIME_SYSTEM    = UTC
MEAN_ELEMENT_THEORY = SGP/SGP4

EPOCH          = 2025-12-13T20:47:46.351680
MEAN_MOTION    = 15.96921183
ECCENTRICITY   = .00027455
INCLINATION    = 42.9941
RA_OF_ASC_NODE = 244.2388
ARG_OF_PERICENTER = 230.1119
MEAN_ANOMALY   = 129.9517

EPHEMERIS_TYPE = 0
CLASSIFICATION_TYPE = U
NORAD_CAT_ID   = 66796
ELEMENT_SET_NO = 999
REV_AT_EPOCH   = 202
BSTAR          = -.13258498E-2
MEAN_MOTION_DOT = -.597138E-2
MEAN_MOTION_DDOT = .12488021E-3

CCSDS_OMM_VERS = 2.0
CREATION_DATE  = 
ORIGINATOR     = 

OBJECT_NAME    = STARLINK-36099
OBJECT_ID      = 2025-278G
CENTER_NAME    = EARTH
REF_FRAME      = TEME
TIME_SYSTEM    = UTC
MEAN_ELEMENT_THEORY = SGP/SGP4

EPOCH          = 2025-12-13T02:39:20.871936
MEAN_MOTION    = 15.86593561
ECCENTRICITY   = .00038292
INCLINATION    = 42.9983
RA_OF_ASC_NODE = 249.8093
ARG_OF_PERICENTER = 302.0122
MEAN_ANOMALY   = 58.0379

EPHEMERIS_TYPE = 0
CLASSIFICATION_TYPE = U
NORAD_CAT_ID   = 66797
ELEMENT_SET_NO = 999
REV_AT_EPOCH   = 189
BSTAR          = .8369452E-3
MEAN_MOTION_DOT = .224629E-2
MEAN_MOTION_DDOT = 0

CCSDS_OMM_VERS = 2.0
CREATION_DATE  = 
ORIGINATOR     = 

OBJECT_NAME    = STARLINK-36041
OBJECT_ID      = 2025-278H
CENTER_NAME    = EARTH
REF_FRAME      = TEME
TIME_SYSTEM    = UTC
MEAN_ELEMENT_THEORY = SGP/SGP4

EPOCH          = 2025-12-13T20:46:30.395712
MEAN_MOTION    = 15.84436801
ECCENTRICITY   = .00028001
INCLINATION    = 42.9970
RA_OF_ASC_NODE = 245.1466
ARG_OF_PERICENTER = 264.2776
MEAN_ANOMALY   = 95.7777

EPHEMERIS_TYPE = 0
CLASSIFICATION_TYPE = U
NORAD_CAT_ID   = 66798
ELEMENT_SET_NO = 999
REV_AT_EPOCH   = 201
BSTAR          = -.61246194E-2
MEAN_MOTION_DOT = -.1278615E-1
MEAN_MOTION_DDOT = 0

CCSDS_OMM_VERS = 2.0
CREATION_DATE  = 
ORIGINATOR     = 

OBJECT_NAME    = STARLINK-36044
OBJECT_ID      = 2025-278J
CENTER_NAME    = EARTH
REF_FRAME      = TEME
TIME_SYSTEM    = UTC
MEAN_ELEMENT_THEORY = SGP/SGP4

EPOCH          = 2025-12-13T19:14:36.423744
MEAN_MOTION    = 15.88156331
ECCENTRICITY   = .00292542
INCLINATION    = 42.9974
RA_OF_ASC_NODE = 245.5274
ARG_OF_PERICENTER = 280.3438
MEAN_ANOMALY   = 79.4139

EPHEMERIS_TYPE = 0
CLASSIFICATION_TYPE = U
NORAD_CAT_ID   = 66799
ELEMENT_SET_NO = 999
REV_AT_EPOCH   = 200
BSTAR          = .3080361E-2
MEAN_MOTION_DOT = .899454E-2
MEAN_MOTION_DDOT = .32948159E-3

CCSDS_OMM_VERS = 2.0
CREATION_DATE  = 
ORIGINATOR     = 

OBJECT_NAME    = STARLINK-35996
OBJECT_ID      = 2025-278K
CENTER_NAME    = EARTH
REF_FRAME      = TEME
TIME_SYSTEM    = UTC
MEAN_ELEMENT_THEORY = SGP/SGP4

EPOCH          = 2025-12-13T17:44:21.158592
MEAN_MOTION    = 15.84673795
ECCENTRICITY   = .00021147
INCLINATION    = 42.9967
RA_OF_ASC_NODE = 245.9175
ARG_OF_PERICENTER = 262.5698
MEAN_ANOMALY   = 97.4935

EPHEMERIS_TYPE = 0
CLASSIFICATION_TYPE = U
NORAD_CAT_ID   = 66800
ELEMENT_SET_NO = 999
REV_AT_EPOCH   = 199
BSTAR          = -.19313109E-2
MEAN_MOTION_DOT = -.43956E-2
MEAN_MOTION_DDOT = 0

